OBJECT_NAME,OBJECT_ID,EPOCH,MEAN_MOTION,ECCENTRICITY,INCLINATION,RA_OF_ASC_NODE,ARG_OF_PERICENTER,MEAN_ANOMALY,EPHEMERIS_TYPE,CLASSIFICATION_TYPE,NORAD_CAT_ID,ELEMENT_SET_NO,REV_AT_EPOCH,BSTAR,MEAN_MOTION_DOT,MEAN_MOTION_DDOT
ONEWEB-0386,2021-090AK,2026-06-06T09:33:18.140832,13.20771571,.00020088,87.9186,276.5803,94.0185,266.1178,0,U,49312,999,22839,-.41431023E-3,-.155E-5,0
ONEWEB-0387,2021-090AL,2026-06-06T01:55:07.764672,13.20772586,.0002297,87.9178,276.6680,100.3150,259.8242,0,U,49313,999,22835,-.30076E-3,-.109E-5,0
ONEWEB-0388,2021-090AM,2026-06-06T15:24:16.272864,13.19724525,.0001857,87.9160,307.0711,92.7147,267.4198,0,U,49314,999,22502,-.21511E-3,-.73E-6,0
2021-091B,2021-091B,2026-06-06T23:28:24.172320,15.18505013,.00150983,97.4482,345.7087,77.5910,282.7013,0,U,49316,999,25743,.19973151E-3,.4064E-4,0
2021-091D,2021-091D,2026-06-06T23:29:01.383936,14.00148535,.00124593,97.4521,192.6269,8.1283,352.0085,0,U,49318,999,24665,-.77185227E-4,-.145E-5,0
SHIJIAN-21 (SJ-21),2021-094A,2026-06-06T21:04:34.394304,1.00276608,.00494675,5.0878,61.2405,167.9791,110.1895,0,U,49330,999,525,0,-.334E-5,0
SES-17,2021-095A,2026-06-06T21:42:33.932160,1.00272789,.00010534,0.0241,36.6016,65.2852,51.9732,0,U,49332,999,1775,0,-.259E-5,0
SYRACUSE 4A,2021-095B,2026-06-06T22:09:52.221312,1.00270949,.00013368,0.0123,347.5941,84.8083,200.9040,0,U,49333,999,1784,0,.149E-5,0
QZS-1R (MICHIBIKI-1R),2021-096A,2026-06-06T15:47:00.831264,1.00259679,.0754231,37.4401,79.7406,271.5748,275.1259,0,U,49336,999,1690,0,-.234E-5,0
JILIN-1 GAOFEN 2F,2021-097A,2026-06-06T22:44:11.742432,15.07685170,.00171568,97.6694,284.1750,261.0971,98.8315,0,U,49338,999,25477,.27957597E-3,.4214E-4,0
YAOGAN-32 02A,2021-099A,2026-06-06T22:04:24.539808,14.64196074,.00006042,98.2458,291.7157,155.5578,204.5653,0,U,49383,999,24486,.16337612E-3,.811E-5,0
YAOGAN-32 02B,2021-099B,2026-06-06T22:04:10.896384,14.64193655,.00008053,98.2453,291.7260,94.6172,265.5122,0,U,49384,999,24486,.16125222E-3,.8E-5,0
SDGSAT 1,2021-100A,2026-06-06T23:03:04.580352,15.19874666,.00073804,97.2636,205.2893,341.8726,18.2246,0,U,49387,999,25436,.11907163E-3,.249E-4,0
YAOGAN-35 01A,2021-101A,2026-06-06T23:09:46.895040,15.26478087,.00069083,34.9929,340.5626,287.2678,72.7281,0,U,49390,999,25531,.37119146E-3,.9908E-4,0
YAOGAN-35 01C,2021-101D,2026-06-06T22:11:43.094976,15.23344078,.0008074,35.0058,329.4709,282.9637,77.0176,0,U,49393,999,25544,.61987554E-3,.15093E-3,0
TEIKYOSAT-4 (OORURI),2021-102B,2026-06-06T15:31:34.160160,15.09469967,.00112319,97.3670,187.5401,336.8376,23.2346,0,U,49396,999,25113,.12986867E-3,.2021E-4,0
RAISE 2,2021-102C,2026-06-06T15:54:31.327776,15.21383110,.00074795,97.3255,190.9580,331.3114,28.7709,0,U,49397,999,25183,.31586684E-3,.7021E-4,0
Z-SAT,2021-102E,2026-06-06T21:59:26.045088,15.18186506,.00148731,97.3329,193.5516,285.2414,74.7176,0,U,49399,999,25188,.24730753E-3,.5003E-4,0
HIBARI,2021-102F,2026-06-06T21:06:26.000640,15.31520923,.00102608,97.3243,203.9017,231.2622,128.7703,0,U,49400,999,25261,.4143511E-3,.12562E-3,0
DRUMS,2021-102G,2026-06-06T14:38:42.477504,15.20381100,.00133939,97.3295,194.9947,269.0824,90.8876,0,U,49401,999,25197,.25801155E-3,.5564E-4,0
KOSEN-1,2021-102H,2026-06-06T15:43:28.600896,15.26688334,.00122643,97.3192,200.0180,240.6044,119.3971,0,U,49402,999,25241,.34214881E-3,.8931E-4,0
STARLINK-3151,2021-104A,2026-06-06T11:50:14.683200,16.00716522,.00016439,53.2108,153.7036,76.0682,284.0533,0,U,49408,999,25255,.15971143E-2,.867532E-2,.37053926E-3
STARLINK-3075,2021-104B,2026-06-06T19:40:08.224032,15.08838112,.00012938,53.1747,188.9656,81.7395,278.3743,0,U,49409,999,25209,.27108917E-4,.143E-5,0
STARLINK-3147,2021-104C,2026-06-06T19:30:54.696384,15.08843488,.00013738,53.1770,189.0077,76.7928,283.3217,0,U,49410,999,25208,-.16000114E-3,-.2834E-4,0
STARLINK-3162,2021-104D,2026-06-06T08:12:34.240608,15.08833816,.00012389,53.1802,181.1115,73.1920,286.9207,0,U,49411,999,25215,.459135E-6,-.281E-5,0
STARLINK-3157,2021-104F,2026-06-06T08:08:39.611904,15.08828064,.00013269,53.1768,181.1374,80.7732,279.3410,0,U,49413,999,25215,-.47096125E-4,-.1037E-4,0
STARLINK-3146,2021-104G,2026-06-06T19:24:09.167616,15.08910978,.00004153,53.1783,189.0104,82.4324,277.6715,0,U,49414,999,25208,.70432242E-3,.10961E-3,0
STARLINK-3159,2021-104H,2026-06-06T08:01:57.908064,15.08855046,.00013205,53.1764,181.1479,85.6844,274.4298,0,U,49415,999,25214,-.94035283E-4,-.1785E-4,0
STARLINK-3133,2021-104J,2026-06-06T09:41:19.940064,15.08833673,.00012093,53.1742,190.8336,88.3507,271.7623,0,U,49416,999,25202,.59547248E-4,.66E-5,0
STARLINK-3154,2021-104K,2026-06-06T18:16:37.418016,15.08830147,.00014526,53.1780,178.8869,114.0558,246.0585,0,U,49417,999,25221,-.23495285E-4,-.662E-5,0
