ONEWEB-0386             
1 49312U 21090AK  26157.39812663 -.00000155  00000+0 -41431-3 0  9998
2 49312  87.9186 276.5803 0002008  94.0185 266.1178 13.20771571228397
ONEWEB-0387             
1 49313U 21090AL  26157.07995098 -.00000109  00000+0 -30076-3 0  9990
2 49313  87.9178 276.6680 0002297 100.3150 259.8242 13.20772586228350
ONEWEB-0388             
1 49314U 21090AM  26157.64185501 -.00000073  00000+0 -21511-3 0  9998
2 49314  87.9160 307.0711 0001857  92.7147 267.4198 13.19724525225021
2021-091B               
1 49316U 21091B   26157.97805755  .00004064  00000+0  19973-3 0  9998
2 49316  97.4482 345.7087 0015098  77.5910 282.7013 15.18505013257438
2021-091D               
1 49318U 21091D   26157.97848824 -.00000145  00000+0 -77185-4 0  9992
2 49318  97.4521 192.6269 0012459   8.1283 352.0085 14.00148535246650
SHIJIAN-21 (SJ-21)      
1 49330U 21094A   26157.87817586 -.00000334  00000+0  00000+0 0  9995
2 49330   5.0878  61.2405 0049467 167.9791 110.1895  1.00276608  5254
SES-17                  
1 49332U 21095A   26157.90455940 -.00000259  00000+0  00000+0 0  9990
2 49332   0.0241  36.6016 0001053  65.2852  51.9732  1.00272789 17752
SYRACUSE 4A             
1 49333U 21095B   26157.92352108  .00000149  00000+0  00000+0 0  9992
2 49333   0.0123 347.5941 0001336  84.8083 200.9040  1.00270949 17844
QZS-1R (MICHIBIKI-1R)   
1 49336U 21096A   26157.65764851 -.00000234  00000+0  00000+0 0  9994
2 49336  37.4401  79.7406 0754231 271.5748 275.1259  1.00259679 16901
JILIN-1 GAOFEN 2F       
1 49338U 21097A   26157.94735813  .00004214  00000+0  27958-3 0  9991
2 49338  97.6694 284.1750 0017156 261.0971  98.8315 15.07685170254772
YAOGAN-32 02A           
1 49383U 21099A   26157.91972847  .00000811  00000+0  16338-3 0  9999
2 49383  98.2458 291.7157 0000604 155.5578 204.5653 14.64196074244864
YAOGAN-32 02B           
1 49384U 21099B   26157.91957056  .00000800  00000+0  16125-3 0  9997
2 49384  98.2453 291.7260 0000805  94.6172 265.5122 14.64193655244861
SDGSAT 1                
1 49387U 21100A   26157.96046968  .00002490  00000+0  11907-3 0  9999
2 49387  97.2636 205.2893 0007380 341.8726  18.2246 15.19874666254360
YAOGAN-35 01A           
1 49390U 21101A   26157.96512610  .00009908  00000+0  37119-3 0  9990
2 49390  34.9929 340.5626 0006908 287.2678  72.7281 15.26478087255313
YAOGAN-35 01C           
1 49393U 21101D   26157.92480434  .00015093  00000+0  61988-3 0  9990
2 49393  35.0058 329.4709 0008074 282.9637  77.0176 15.23344078255446
TEIKYOSAT-4 (OORURI)    
1 49396U 21102B   26157.64692315  .00002021  00000+0  12987-3 0  9998
2 49396  97.3670 187.5401 0011231 336.8376  23.2346 15.09469967251133
RAISE 2                 
1 49397U 21102C   26157.66286259  .00007021  00000+0  31587-3 0  9999
2 49397  97.3255 190.9580 0007479 331.3114  28.7709 15.21383110251837
Z-SAT                   
1 49399U 21102E   26157.91627367  .00005003  00000+0  24731-3 0  9999
2 49399  97.3329 193.5516 0014873 285.2414  74.7176 15.18186506251885
HIBARI                  
1 49400U 21102F   26157.87946760  .00012562  00000+0  41435-3 0  9996
2 49400  97.3243 203.9017 0010260 231.2622 128.7703 15.31520923252611
DRUMS                   
1 49401U 21102G   26157.61021386  .00005564  00000+0  25801-3 0  9990
2 49401  97.3295 194.9947 0013393 269.0824  90.8876 15.20381100251971
KOSEN-1                 
1 49402U 21102H   26157.65519214  .00008931  00000+0  34215-3 0  9997
2 49402  97.3192 200.0180 0012264 240.6044 119.3971 15.26688334252419
STARLINK-3151           
1 49408U 21104A   26157.49322550  .00867532  37054-3  15971-2 0  9992
2 49408  53.2108 153.7036 0001643  76.0682 284.0533 16.00716522252558
STARLINK-3075           
1 49409U 21104B   26157.81953963  .00000143  00000+0  27109-4 0  9999
2 49409  53.1747 188.9656 0001293  81.7395 278.3743 15.08838112252095
STARLINK-3147           
1 49410U 21104C   26157.81313306 -.00002834  00000+0 -16000-3 0  9990
2 49410  53.1770 189.0077 0001373  76.7928 283.3217 15.08843488252080
STARLINK-3162           
1 49411U 21104D   26157.34206297 -.00000281  00000+0  45913-6 0  9990
2 49411  53.1802 181.1115 0001238  73.1920 286.9207 15.08833816252156
STARLINK-3157           
1 49413U 21104F   26157.33934736 -.00001037  00000+0 -47096-4 0  9990
2 49413  53.1768 181.1374 0001326  80.7732 279.3410 15.08828064252150
STARLINK-3146           
1 49414U 21104G   26157.80843944  .00010961  00000+0  70432-3 0  9996
2 49414  53.1783 189.0104 0000415  82.4324 277.6715 15.08910978252087
STARLINK-3159           
1 49415U 21104H   26157.33469801 -.00001785  00000+0 -94035-4 0  9993
2 49415  53.1764 181.1479 0001320  85.6844 274.4298 15.08855046252145
STARLINK-3133           
1 49416U 21104J   26157.40370301  .00000660  00000+0  59547-4 0  9996
2 49416  53.1742 190.8336 0001209  88.3507 271.7623 15.08833673252024
STARLINK-3154           
1 49417U 21104K   26157.76154419 -.00000662  00000+0 -23495-4 0  9993
2 49417  53.1780 178.8869 0001452 114.0558 246.0585 15.08830147252213
